[
    {
        "CCSDS_OMM_VERS": "3.0",
        "COMMENT": "GENERATED VIA SPACE-TRACK.ORG API",
        "CREATION_DATE": "2025-03-01T07:06:33",
        "ORIGINATOR": "18 SPCS",
        "OBJECT_NAME": "NAVSTAR 76 (USA 266)",
        "OBJECT_ID": "2016-007A",
        "CENTER_NAME": "EARTH",
        "REF_FRAME": "TEME",
        "TIME_SYSTEM": "UTC",
        "MEAN_ELEMENT_THEORY": "SGP4",
        "EPOCH": "2025-03-01T05:10:45.160608",
        "MEAN_MOTION": "2.00574743",
        "ECCENTRICITY": "0.00866380",
        "INCLINATION": "55.2428",
        "RA_OF_ASC_NODE": "108.2351",
        "ARG_OF_PERICENTER": "241.1499",
        "MEAN_ANOMALY": "118.0621",
        "EPHEMERIS_TYPE": "0",
        "CLASSIFICATION_TYPE": "U",
        "NORAD_CAT_ID": "41328",
        "ELEMENT_SET_NO": "999",
        "REV_AT_EPOCH": "6639",
        "BSTAR": "0.00000000000000",
        "MEAN_MOTION_DOT": "0.00000036",
        "MEAN_MOTION_DDOT": "0.0000000000000",
        "SEMIMAJOR_AXIS": "26559.364",
        "PERIOD": "717.937",
        "APOAPSIS": "20411.334",
        "PERIAPSIS": "19951.124",
        "OBJECT_TYPE": "PAYLOAD",
        "RCS_SIZE": "LARGE",
        "COUNTRY_CODE": "US",
        "LAUNCH_DATE": "2016-02-05",
        "SITE": "AFETR",
        "DECAY_DATE": null,
        "FILE": "4655749",
        "GP_ID": "281976164",
        "TLE_LINE0": "0 NAVSTAR 76 (USA 266)",
        "TLE_LINE1": "1 41328U 16007A   25060.21580047  .00000036  00000-0  00000+0 0  9990",
        "TLE_LINE2": "2 41328  55.2428 108.2351 0086638 241.1499 118.0621  2.00574743 66392"
    }
]